CCSDS_OMM_VERS,COMMENT,CREATION_DATE,ORIGINATOR,OBJECT_NAME,OBJECT_ID,CENTER_NAME,REF_FRAME,TIME_SYSTEM,MEAN_ELEMENT_THEORY,EPOCH,MEAN_MOTION,ECCENTRICITY,INCLINATION,RA_OF_ASC_NODE,ARG_OF_PERICENTER,MEAN_ANOMALY,EPHEMERIS_TYPE,CLASSIFICATION_TYPE,NORAD_CAT_ID,ELEMENT_SET_NO,REV_AT_EPOCH,BSTAR,MEAN_MOTION_DOT,MEAN_MOTION_DDOT,SEMIMAJOR_AXIS,PERIOD,APOAPSIS,PERIAPSIS,OBJECT_TYPE,RCS_SIZE,COUNTRY_CODE,LAUNCH_DATE,SITE,DECAY_DATE,FILE,GP_ID,TLE_LINE0,TLE_LINE1,TLE_LINE2
"2.0","GENERATED VIA SPACE-TRACK.ORG API","2020-12-26T22:56:09","18 SPCS","STARLINK-1694","2020-070N","EARTH","TEME","UTC","SGP4","2020-12-26T22:00:00.999936","15.25351122","0.00012640","53.0009","45.1632","65.2186","263.1565","0","U","46544","999","1354","-0.04541200000000","-0.01063232","0.0000000000000","6867.868","94.404","490.601","488.865","PAYLOAD","LARGE","US","2020-10-06","AFETR","","2910556","168416555","0 STARLINK-1694","1 46544U 20070N   20361.91667824 -.01063232  00000-0 -45412-1 0  9993","2 46544  53.0009  45.1632 0001264  65.2186 263.1565 15.25351122 13542"
"2.0","GENERATED VIA SPACE-TRACK.ORG API","2020-12-27T14:56:09","18 SPCS","STARLINK-1694","2020-070N","EARTH","TEME","UTC","SGP4","2020-12-27T14:00:01.999872","15.23762470","0.00013610","53.0012","42.0867","71.5497","317.9954","0","U","46544","999","1364","-0.04315500000000","-0.00970746","0.0000000000000","6872.641","94.502","495.441","493.570","PAYLOAD","LARGE","US","2020-10-06","AFETR","","2910946","168468195","0 STARLINK-1694","1 46544U 20070N   20362.58335648 -.00970746  00000-0 -43155-1 0  9991","2 46544  53.0012  42.0867 0001361  71.5497 317.9954 15.23762470 13646"
"2.0","GENERATED VIA SPACE-TRACK.ORG API","2020-12-27T22:46:10","18 SPCS","STARLINK-1694","2020-070N","EARTH","TEME","UTC","SGP4","2020-12-27T22:00:00.999936","15.23069384","0.00013130","53.0013","40.5504","68.5772","350.0381","0","U","46544","999","1369","-0.04848400000000","-0.01060220","0.0000000000000","6874.725","94.545","497.493","495.688","PAYLOAD","LARGE","US","2020-10-06","AFETR","","2911174","168495454","0 STARLINK-1694","1 46544U 20070N   20362.91667824 -.01060220  00000-0 -48484-1 0  9990","2 46544  53.0013  40.5504 0001313  68.5772 350.0381 15.23069384 13698"
"2.0","GENERATED VIA SPACE-TRACK.ORG API","2020-12-28T17:37:40","18 SPCS","STARLINK-1694","2020-070N","EARTH","TEME","UTC","SGP4","2020-12-28T07:12:39.642048","15.24129901","0.00013430","53.0002","38.7776","126.1511","233.9609","0","U","46544","999","1374","-0.01328700000000","-0.00314049","0.0000000000000","6871.536","94.480","494.324","492.478","PAYLOAD","LARGE","US","2020-10-06","AFETR","","2911561","168525426","0 STARLINK-1694","1 46544U 20070N   20363.30045882 -.00314049  00000-0 -13287-1 0  9991","2 46544  53.0002  38.7776 0001343 126.1511 233.9609 15.24129901 13742"
"2.0","GENERATED VIA SPACE-TRACK.ORG API","2020-12-28T22:46:09","18 SPCS","STARLINK-1694","2020-070N","EARTH","TEME","UTC","SGP4","2020-12-28T22:00:01.999584","15.20792462","0.00015410","53.0006","35.9526","59.2710","81.4332","0","U","46544","999","1384","-0.05166500000000","-0.01056423","0.0000000000000","6881.585","94.687","504.511","502.390","PAYLOAD","LARGE","US","2020-10-06","AFETR","","2911758","168530232","0 STARLINK-1694","1 46544U 20070N   20363.91668981 -.01056423  00000-0 -51665-1 0  9991","2 46544  53.0006  35.9526 0001541  59.2710  81.4332 15.20792462 13849"
"2.0","GENERATED VIA SPACE-TRACK.ORG API","2020-12-29T18:51:30","18 SPCS","STARLINK-1694","2020-070N","EARTH","TEME","UTC","SGP4","2020-12-29T14:00:01.000224","15.19178174","0.00015160","53.0002","32.8967","61.8370","128.9847","0","U","46544","999","176","-0.04672000000000","-0.00921644","0.0000000000000","6886.460","94.788","509.369","507.281","PAYLOAD","LARGE","US","2020-10-06","AFETR","","2912202","168582473","0 STARLINK-1694","1 46544U 20070N   20364.58334491 -.00921644  00000-0 -46720-1 0  9992","2 46544  53.0002  32.8967 0001516  61.8370 128.9847 15.19178174  1765"
"2.0","GENERATED VIA SPACE-TRACK.ORG API","2020-12-29T22:36:09","18 SPCS","STARLINK-1694","2020-070N","EARTH","TEME","UTC","SGP4","2020-12-29T20:00:01.000224","15.18710844","0.00015710","53.0007","31.7521","56.2212","62.4099","0","U","46544","999","1398","-0.05476500000000","-0.01053847","0.0000000000000","6887.872","94.817","510.819","508.655","PAYLOAD","LARGE","US","2020-10-06","AFETR","","2912371","168587067","0 STARLINK-1694","1 46544U 20070N   20364.83334491 -.01053847  00000-0 -54765-1 0  9990","2 46544  53.0007  31.7521 0001571  56.2212  62.4099 15.18710844 13981"
"2.0","GENERATED VIA SPACE-TRACK.ORG API","2020-12-30T05:10:39","18 SPCS","STARLINK-1694","2020-070N","EARTH","TEME","UTC","SGP4","2020-12-29T22:00:00.999936","15.18521703","0.00015220","53.0005","31.3709","60.7347","153.7364","0","U","46544","999","181","-0.05500700000000","-0.01052783","0.0000000000000","6888.444","94.829","511.358","509.261","PAYLOAD","LARGE","US","2020-10-06","AFETR","","2912412","168608311","0 STARLINK-1694","1 46544U 20070N   20364.91667824 -.01052783  00000-0 -55007-1 0  9996","2 46544  53.0005  31.3709 0001522  60.7347 153.7364 15.18521703  1810"
"2.0","GENERATED VIA SPACE-TRACK.ORG API","2020-12-30T14:46:09","18 SPCS","STARLINK-1694","2020-070N","EARTH","TEME","UTC","SGP4","2020-12-30T14:00:01.000224","15.16972456","0.00013970","53.0001","28.3266","67.0757","192.0923","0","U","46544","999","1410","-0.05439000000000","-0.00999828","0.0000000000000","6893.133","94.925","515.961","514.035","PAYLOAD","LARGE","US","2020-10-06","AFETR","","2912771","168617262","0 STARLINK-1694","1 46544U 20070N   20365.58334491 -.00999828  00000-0 -54390-1 0  9994","2 46544  53.0001  28.3266 0001397  67.0757 192.0923 15.16972456 14101"
"2.0","GENERATED VIA SPACE-TRACK.ORG API","2020-12-31T02:56:27","18 SPCS","STARLINK-1694","2020-070N","EARTH","TEME","UTC","SGP4","2020-12-30T22:00:00.999936","15.16257031","0.00013530","53.0005","26.8062","69.0466","211.0803","0","U","46544","999","180","-0.05856000000000","-0.01063243","0.0000000000000","6895.301","94.970","518.099","516.234","PAYLOAD","LARGE","US","2020-10-06","AFETR","","2912965","168664271","0 STARLINK-1694","1 46544U 20070N   20365.91667824 -.01063243  00000-0 -58560-1 0  9997","2 46544  53.0005  26.8062 0001353  69.0466 211.0803 15.16257031  1800"
"2.0","GENERATED VIA SPACE-TRACK.ORG API","2020-12-31T06:56:10","18 SPCS","STARLINK-1694","2020-070N","EARTH","TEME","UTC","SGP4","2020-12-31T06:00:02.000160","15.15437015","0.00013580","52.9994","25.2836","76.9893","223.3057","0","U","46544","999","1420","-0.05438400000000","-0.00959916","0.0000000000000","6897.789","95.022","520.590","518.717","PAYLOAD","LARGE","US","2020-10-06","AFETR","","2913162","168668975","0 STARLINK-1694","1 46544U 20070N   20366.25002315 -.00959916  00000-0 -54384-1 0  9993","2 46544  52.9994  25.2836 0001358  76.9893 223.3057 15.15437015 14209"
"2.0","GENERATED VIA SPACE-TRACK.ORG API","2020-12-31T15:56:10","18 SPCS","STARLINK-1694","2020-070N","EARTH","TEME","UTC","SGP4","2020-12-31T12:00:02.000160","15.14937925","0.00014020","52.9992","24.1476","79.8249","144.8966","0","U","46544","999","1424","-0.06068500000000","-0.01061244","0.0000000000000","6899.304","95.053","522.136","520.201","PAYLOAD","LARGE","US","2020-10-06","AFETR","","2913388","168674311","0 STARLINK-1694","1 46544U 20070N   20366.50002315 -.01061244  00000-0 -60685-1 0  9991","2 46544  52.9992  24.1476 0001402  79.8249 144.8966 15.14937925 14246"
"2.0","GENERATED VIA SPACE-TRACK.ORG API","2020-12-31T18:10:35","18 SPCS","STARLINK-1694","2020-070N","EARTH","TEME","UTC","SGP4","2020-12-31T14:00:01.000224","15.14691176","0.00014000","53.0003","23.7723","59.8890","259.5065","0","U","46544","999","175","-0.05613500000000","-0.00969223","0.0000000000000","6900.053","95.068","522.884","520.952","PAYLOAD","LARGE","US","2020-10-06","AFETR","","2913399","168695401","0 STARLINK-1694","1 46544U 20070N   20366.58334491 -.00969223  00000-0 -56135-1 0  9990","2 46544  53.0003  23.7723 0001400  59.8890 259.5065 15.14691176  1750"
"2.0","GENERATED VIA SPACE-TRACK.ORG API","2021-01-01T02:27:52","18 SPCS","STARLINK-1694","2020-070N","EARTH","TEME","UTC","SGP4","2020-12-31T22:00:00.999936","15.13998005","0.00013650","53.0006","22.2573","59.4125","278.2161","0","U","46544","999","181","-0.06228600000000","-0.01060605","0.0000000000000","6902.159","95.112","524.966","523.082","PAYLOAD","LARGE","US","2020-10-06","AFETR","","2913608","168722473","0 STARLINK-1694","1 46544U 20070N   20366.91667824 -.01060605  00000-0 -62286-1 0  9997","2 46544  53.0006  22.2573 0001365  59.4125 278.2161 15.13998005  1819"
"2.0","GENERATED VIA SPACE-TRACK.ORG API","2021-01-01T14:36:09","18 SPCS","STARLINK-1694","2020-070N","EARTH","TEME","UTC","SGP4","2021-01-01T14:00:01.000224","15.12421968","0.00014460","53.0007","19.2327","53.8371","317.6417","0","U","46544","999","1440","-0.05833800000000","-0.00946550","0.0000000000000","6906.953","95.211","529.817","527.819","PAYLOAD","LARGE","US","2020-10-06","AFETR","","2913836","168727478","0 STARLINK-1694","1 46544U 20070N   21001.58334491 -.00946550  00000-0 -58338-1 0  9992","2 46544  53.0007  19.2327 0001446  53.8371 317.6417 15.12421968 14403"
"2.0","GENERATED VIA SPACE-TRACK.ORG API","2021-01-01T17:53:07","18 SPCS","STARLINK-1694","2020-070N","EARTH","TEME","UTC","SGP4","2021-01-01T14:00:01.000224","15.12421968","0.00014460","53.0007","19.2327","53.8371","317.6417","0","U","46544","999","176","-0.05833800000000","-0.00946550","0.0000000000000","6906.953","95.211","529.817","527.819","PAYLOAD","LARGE","US","2020-10-06","AFETR","","2913864","168749471","0 STARLINK-1694","1 46544U 20070N   21001.58334491 -.00946550  00000-0 -58338-1 0  9992","2 46544  53.0007  19.2327 0001446  53.8371 317.6417 15.12421968  1768"
